[ ["SL-14 R/B", 20511, "1 20511U 90018B   26204.19547068  .00000299  00000+0  34498-4 0  9992", "2 20511  82.5212  96.4520 0016410  11.6136 348.5454 14.82237797942656", null], ["HST", 20580, "1 20580U 90037B   26204.25693191  .00005734  00000+0  17776-3 0  9993", "2 20580  28.4721 193.9755 0001928 181.0239 179.0353 15.31122099794106", 1.9], ["SL-16 R/B", 20625, "1 20625U 90046B   26204.49553269  .00000214  00000+0  13504-3 0  9993", "2 20625  71.0001  12.6896 0012140  99.4872 260.7624 14.15029995867604", null], ["COSMOS 2084", 20663, "1 20663U 90055A   26204.31088123  .00001366  00000+0  10635-3 0  9999", "2 20663  62.7872 232.7820 0009132 324.8121  35.2375 15.06243706956741", null], ["SL-6 R/B(2)", 20666, "1 20666U 90055D   26204.81540213  .00002074  00000+0  16018-3 0  9998", "2 20666  62.7815 150.7228 0046437  10.2245 349.9788 15.04117567958663", null], ["SL-8 R/B", 20775, "1 20775U 90078B   26204.51586479  .00009698  00000+0  27503-3 0  9995", "2 20775  82.9031 128.7766 0342616 275.1783  81.0431 14.93721786829541", null], ["SL-8 R/B", 21088, "1 21088U 91006B   26204.59239147  .00000103  00000+0  88472-4 0  9995", "2 21088  82.9400  68.9468 0022912  17.7908   9.7821 13.77510616782789", null], ["OKEAN-3", 21397, "1 21397U 91039A   26204.43091078  .00002089  00000+0  14329-3 0  9990", "2 21397  82.5153 205.2304 0013174 222.7225 137.2979 15.05466937885456", null], ["COSMOS 2151", 21422, "1 21422U 91042A   26204.80409595  .00001259  00000+0  97642-4 0  9999", "2 21422  82.4983 312.3437 0011236 324.9923  35.0561 15.00531974883605", null], ["SL-14 R/B", 21423, "1 21423U 91042B   26204.68235903  .00000274  00000+0  31533-4 0  9999", "2 21423  82.4925  92.6719 0017693 149.6947 210.5295 14.81921590873219", null], ["ERS-1", 21574, "1 21574U 91050A   26204.51708470  .00000211  00000+0  81989-4 0  9992", "2 21574  98.7796 226.1021 0032410 157.3572 202.9053 14.39537122835274", null], ["ARIANE 40 R/B", 21610, "1 21610U 91050F   26204.10695536  .00000217  00000+0  77316-4 0  9991", "2 21610  98.1857 251.1211 0003759  43.4344 316.7143 14.42975161838520", null], ["INTERCOSMOS 25", 21819, "1 21819U 91086A   26204.10007319  .00001174  00000+0  22782-3 0  9996", "2 21819  82.6000 228.0776 1484935 184.8719 173.6395 12.12249127513096", null], ["SL-8 R/B", 21876, "1 21876U 92008B   26204.83863318  .00000129  00000+0  11640-3 0  9993", "2 21876  82.9283 166.5381 0036048 113.2212 263.3719 13.75985411728148", null], ["SL-8 R/B", 21938, "1 21938U 92020B   26204.56226360 -.00000014  00000+0 -29593-4 0  9998", "2 21938  82.9274  52.8327 0027748 279.0899 107.9806 13.75549690719812", null], ["USA 81", 21949, "1 21949U 92023A   26204.46027287  .00000135  00000+0  42456-4 0  9994", "2 21949  85.0047  53.0651 0001606  65.3633 294.7726 14.32406481114220", null], ["COSMOS 2219", 22219, "1 22219U 92076A   26204.69100007 -.00000300  00000+0 -13271-3 0  9998", "2 22219  71.0603  93.7642 0018713 344.9750  15.0814 14.14105188737603", null], ["SL-16 R/B", 22220, "1 22220U 92076B   26204.61970205 -.00000239  00000+0 -95248-4 0  9993", "2 22220  70.9990 262.0352 0014983 251.3192 269.5392 14.16876828741089", null], ["COSMOS 2221", 22236, "1 22236U 92080A   26204.84563354  .00001562  00000+0  13451-3 0  9996", "2 22236  82.5054 148.6435 0015980  93.9610 266.3439 14.96623779801155", null], ["SL-16 R/B", 22285, "1 22285U 92093B   26204.35449584 -.00000116  00000+0 -34980-4 0  9995", "2 22285  71.0209  79.4665 0002193 111.0790 249.0568 14.15463136732359", null], ["COSMOS 2228", 22286, "1 22286U 92094A   26204.83496470  .00001460  00000+0  12213-3 0  9991", "2 22286  82.5183 106.9391 0016970 198.3643 161.6969 14.97695176796437", null], ["SL-16 R/B", 22566, "1 22566U 93016B   26204.69177801  .00000177  00000+0  11547-3 0  9998", "2 22566  71.0085 289.5356 0008372 122.6987 237.4944 14.15317680721411", null], ["COSMOS 2242", 22626, "1 22626U 93024A   26204.27652546  .00001433  00000+0  12206-3 0  9991", "2 22626  82.5203 137.0158 0015264 203.5609 156.4916 14.97002828800672", null], ["SL-16 R/B", 22803, "1 22803U 93059B   26204.41525492  .00000211  00000+0  12823-3 0  9999", "2 22803  70.9902  84.9061 0017172 356.1337   3.9651 14.17251654698764", null], ["ARIANE 40 R/B", 22830, "1 22830U 93061H   26204.44606222  .00000126  00000+0  61730-4 0  9993", "2 22830  98.4800 270.5466 0009692 238.5210 121.5027 14.32920808713548", null], ["COSMOS 2278", 23087, "1 23087U 94023A   26204.52771475  .00000301  00000+0  18181-3 0  9995", "2 23087  71.0514 250.8918 0009169 193.3900 166.6981 14.14396601664012", null], ["SL-16 R/B", 23088, "1 23088U 94023B   26204.72529977  .00000312  00000+0  18566-3 0  9995", "2 23088  71.0002 145.1983 0001189  91.7101 268.4158 14.15029708665336", null], ["SL-16 R/B", 23343, "1 23343U 94074B   26204.54978778  .00000351  00000+0  53476-4 0  9995", "2 23343  97.6985 229.7539 0007705 130.3890  21.1561 14.79529621707333", null], ["SL-16 R/B", 23405, "1 23405U 94077B   26204.58318919  .00000302  00000+0  17863-3 0  9991", "2 23405  70.9822  66.5917 0004265 297.0458  63.0229 14.15577414635465", null], ["ARIANE 40+ R/B", 23561, "1 23561U 95021B   26204.18987134  .00000197  00000+0  76458-4 0  9999", "2 23561  98.4394 273.7417 0007984  96.2546 322.6166 14.39850800638749", null], ["SL-16 R/B", 23705, "1 23705U 95058B   26204.31403324  .00000210  00000+0  13156-3 0  9999", "2 23705  71.0203 255.5094 0014785 272.4810  87.4620 14.15513533587043", null]]